{"type": "FeatureCollection", "features": [ {"type": "Feature", "properties": {"norad_id": 30013, "name": "FENGYUN 1C DEB", "group": "fengyun-1c-debris", "lat": -78.6621356346842, "lon": 73.73843193868535, "alt_km": 961.0082614134699, "timestamp": "2025-12-22T16:55:17.736292+00:00", "meta": {"OBJECT_NAME": "FENGYUN 1C DEB", "OBJECT_ID": "1999-025MN", "EPOCH": "2025-12-21T19:42:32.523264", "MEAN_MOTION": 13.87830908, "ECCENTRICITY": 0.01279342, "INCLINATION": 99.5794, "RA_OF_ASC_NODE": 15.4563, "ARG_OF_PERICENTER": 19.9274, "MEAN_ANOMALY": 164.0416, "EPHEMERIS_TYPE": 0, "CLASSIFICATION_TYPE": "U", "NORAD_CAT_ID": 30013, "ELEMENT_SET_NO": 999, "REV_AT_EPOCH": 95807, "BSTAR": 0.00021781795, "MEAN_MOTION_DOT": 2.29e-06, "MEAN_MOTION_DDOT": 0}, "tle": {"line1": "1 30013U 99025MN  25355.82120976  .00000229  00000+0  21782-3 0  9992", "line2": "2 30013  99.5794  15.4563 0127934  19.9274 164.0416 13.87830908958072"}}, "geometry": {"type": "Point", "coordinates": [73.73843193868535, -78.6621356346842]}}, {"type": "Feature", "properties": {"norad_id": 30015, "name": "FENGYUN 1C DEB", "group": "fengyun-1c-debris", "lat": -50.881620501164306, "lon": 168.66054148508425, "alt_km": 815.4422132861828, "timestamp": "2025-12-22T16:55:17.736303+00:00", "meta": {"OBJECT_NAME": "FENGYUN 1C DEB", "OBJECT_ID": "1999-025MQ", "EPOCH": "2025-12-22T05:50:58.767072", "MEAN_MOTION": 14.30825385, "ECCENTRICITY": 0.00386738, "INCLINATION": 99.2284, "RA_OF_ASC_NODE": 359.7035, "ARG_OF_PERICENTER": 97.9175, "MEAN_ANOMALY": 278.536, "EPHEMERIS_TYPE": 0, "CLASSIFICATION_TYPE": "U", "NORAD_CAT_ID": 30015, "ELEMENT_SET_NO": 999, "REV_AT_EPOCH": 98309, "BSTAR": 0.00049735724, "MEAN_MOTION_DOT": 1.266e-05, "MEAN_MOTION_DDOT": 0}, "tle": {"line1": "1 30015U 99025MQ  25356.24373573  .00001266  00000+0  49736-3 0  9995", "line2": "2 30015  99.2284 359.7035 0038673  97.9175 278.5360 14.30825385983091"}}, "geometry": {"type": "Point", "coordinates": [168.66054148508425, -50.881620501164306]}}, {"type": "Feature", "properties": {"norad_id": 30016, "name": "FENGYUN 1C DEB", "group": "fengyun-1c-debris", "lat": -80.94624909759507, "lon": 89.40501306502473, "alt_km": 645.1945794773901, "timestamp": "2025-12-22T16:55:17.736314+00:00", "meta": {"OBJECT_NAME": "FENGYUN 1C DEB", "OBJECT_ID": "1999-025MR", "EPOCH": "2025-12-21T19:24:25.358976", "MEAN_MOTION": 14.78721267, "ECCENTRICITY": 0.00462252, "INCLINATION": 98.9039, "RA_OF_ASC_NODE": 8.729, "ARG_OF_PERICENTER": 12.811, "MEAN_ANOMALY": 170.0186, "EPHEMERIS_TYPE": 0, "CLASSIFICATION_TYPE": "U", "NORAD_CAT_ID": 30016, "ELEMENT_SET_NO": 999, "REV_AT_EPOCH": 99587, "BSTAR": 0.0014700119, "MEAN_MOTION_DOT": 0.00010934, "MEAN_MOTION_DDOT": 0}, "tle": {"line1": "1 30016U 99025MR  25355.80862684  .00010934  00000+0  14700-2 0  9997", "line2": "2 30016  98.9039   8.7290 0046225  12.8110 170.0186 14.78721267995874"}}, "geometry": {"type": "Point", "coordinates": [89.40501306502473, -80.94624909759507]}}, {"type": "Feature", "properties": {"norad_id": 30017, "name": "FENGYUN 1C DEB", "group": "fengyun-1c-debris", "lat": 31.790292641962647, "lon": -132.64469164969373, "alt_km": 533.6283745881292, "timestamp": "2025-12-22T16:55:17.736325+00:00", "meta": {"OBJECT_NAME": "FENGYUN 1C DEB", "OBJECT_ID": "1999-025MS", "EPOCH": "2025-12-22T01:27:50.728320", "MEAN_MOTION": 14.61216242, "ECCENTRICITY": 0.02178837, "INCLINATION": 98.7533, "RA_OF_ASC_NODE": 41.194, "ARG_OF_PERICENTER": 146.4416, "MEAN_ANOMALY": 215.0806, "EPHEMERIS_TYPE": 0, "CLASSIFICATION_TYPE": "U", "NORAD_CAT_ID": 30017, "ELEMENT_SET_NO": 999, "REV_AT_EPOCH": 580, "BSTAR": 0.00013606053, "MEAN_MOTION_DOT": 8.73e-06, "MEAN_MOTION_DDOT": 0}, "tle": {"line1": "1 30017U 99025MS  25356.06100380  .00000873  00000+0  13606-3 0  9991", "line2": "2 30017  98.7533  41.1940 0217883 146.4416 215.0806 14.61216242  5806"}}, "geometry": {"type": "Point", "coordinates": [-132.64469164969373, 31.790292641962647]}}, {"type": "Feature", "properties": {"norad_id": 30018, "name": "FENGYUN 1C DEB", "group": "fengyun-1c-debris", "lat": -70.93943848909444, "lon": -126.36543610782553, "alt_km": 655.0138921555645, "timestamp": "2025-12-22T16:55:17.736335+00:00", "meta": {"OBJECT_NAME": "FENGYUN 1C DEB", "OBJECT_ID": "1999-025MT", "EPOCH": "2025-12-22T03:03:13.110048", "MEAN_MOTION": 14.73279333, "ECCENTRICITY": 0.0116926, "INCLINATION": 98.7554, "RA_OF_ASC_NODE": 79.502, "ARG_OF_PERICENTER": 166.0939, "MEAN_ANOMALY": 262.6334, "EPHEMERIS_TYPE": 0, "CLASSIFICATION_TYPE": "U", "NORAD_CAT_ID": 30018, "ELEMENT_SET_NO": 999, "REV_AT_EPOCH": 575, "BSTAR": 0.00080280651, "MEAN_MOTION_DOT": 5.725e-05, "MEAN_MOTION_DDOT": 0}, "tle": {"line1": "1 30018U 99025MT  25356.12723507  .00005725  00000+0  80281-3 0  9995", "line2": "2 30018  98.7554  79.5020 0116926 166.0939 262.6334 14.73279333  5759"}}, "geometry": {"type": "Point", "coordinates": [-126.36543610782553, -70.93943848909444]}}, {"type": "Feature", "properties": {"norad_id": 30020, "name": "FENGYUN 1C DEB", "group": "fengyun-1c-debris", "lat": 43.88650377582029, "lon": -8.350664142686497, "alt_km": 741.1338238198359, "timestamp": "2025-12-22T16:55:17.736345+00:00", "meta": {"OBJECT_NAME": "FENGYUN 1C DEB", "OBJECT_ID": "1999-025MV", "EPOCH": "2025-12-22T06:32:31.979904", "MEAN_MOTION": 14.04481475, "ECCENTRICITY": 0.01839396, "INCLINATION": 98.8471, "RA_OF_ASC_NODE": 359.8436, "ARG_OF_PERICENTER": 43.9276, "MEAN_ANOMALY": 335.1991, "EPHEMERIS_TYPE": 0, "CLASSIFICATION_TYPE": "U", "NORAD_CAT_ID": 30020, "ELEMENT_SET_NO": 999, "REV_AT_EPOCH": 96792, "BSTAR": 0.00035999836, "MEAN_MOTION_DOT": 6.25e-06, "MEAN_MOTION_DDOT": 0}, "tle": {"line1": "1 30020U 99025MV  25356.27259236  .00000625  00000+0  36000-3 0  9991", "line2": "2 30020  98.8471 359.8436 0183939  43.9276 335.1991 14.04481475967928"}}, "geometry": {"type": "Point", "coordinates": [-8.350664142686497, 43.88650377582029]}}, {"type": "Feature", "properties": {"norad_id": 30021, "name": "FENGYUN 1C DEB", "group": "fengyun-1c-debris", "lat": -40.578454890152216, "lon": 160.31502900361343, "alt_km": 842.0825804319848, "timestamp": "2025-12-22T16:55:17.736356+00:00", "meta": {"OBJECT_NAME": "FENGYUN 1C DEB", "OBJECT_ID": "1999-025MW", "EPOCH": "2025-12-21T23:02:08.627712", "MEAN_MOTION": 14.04895332, "ECCENTRICITY": 0.00717781, "INCLINATION": 98.836, "RA_OF_ASC_NODE": 347.2451, "ARG_OF_PERICENTER": 260.9786, "MEAN_ANOMALY": 153.522, "EPHEMERIS_TYPE": 0, "CLASSIFICATION_TYPE": "U", "NORAD_CAT_ID": 30021, "ELEMENT_SET_NO": 999, "REV_AT_EPOCH": 97061, "BSTAR": -1.7945723e-05, "MEAN_MOTION_DOT": -7.3e-07, "MEAN_MOTION_DDOT": 0}, "tle": {"line1": "1 30021U 99025MW  25355.95982208 -.00000073  00000+0 -17946-4 0  9996", "line2": "2 30021  98.8360 347.2451 0071778 260.9786 153.5220 14.04895332970616"}}, "geometry": {"type": "Point", "coordinates": [160.31502900361343, -40.578454890152216]}}, {"type": "Feature", "properties": {"norad_id": 30022, "name": "FENGYUN 1C DEB", "group": "fengyun-1c-debris", "lat": 56.566049201473426, "lon": -168.88265208955593, "alt_km": 857.2002757042683, "timestamp": "2025-12-22T16:55:17.736367+00:00", "meta": {"OBJECT_NAME": "FENGYUN 1C DEB", "OBJECT_ID": "1999-025MX", "EPOCH": "2025-12-22T03:41:29.761152", "MEAN_MOTION": 14.2313574, "ECCENTRICITY": 0.00666413, "INCLINATION": 99.0716, "RA_OF_ASC_NODE": 204.5535, "ARG_OF_PERICENTER": 241.7871, "MEAN_ANOMALY": 233.2876, "EPHEMERIS_TYPE": 0, "CLASSIFICATION_TYPE": "U", "NORAD_CAT_ID": 30022, "ELEMENT_SET_NO": 999, "REV_AT_EPOCH": 98326, "BSTAR": 6.7202017e-05, "MEAN_MOTION_DOT": 1.08e-06, "MEAN_MOTION_DDOT": 0}, "tle": {"line1": "1 30022U 99025MX  25356.15381668  .00000108  00000+0  67202-4 0  9990", "line2": "2 30022  99.0716 204.5535 0066641 241.7871 233.2876 14.23135740983267"}}, "geometry": {"type": "Point", "coordinates": [-168.88265208955593, 56.566049201473426]}}, {"type": "Feature", "properties": {"norad_id": 30023, "name": "FENGYUN 1C DEB", "group": "fengyun-1c-debris", "lat": -55.17771632435891, "lon": -155.75956096650472, "alt_km": 861.1051585105661, "timestamp": "2025-12-22T16:55:17.736377+00:00", "meta": {"OBJECT_NAME": "FENGYUN 1C DEB", "OBJECT_ID": "1999-025MY", "EPOCH": "2025-12-22T02:25:24.431808", "MEAN_MOTION": 14.11876101, "ECCENTRICITY": 0.00470452, "INCLINATION": 99.2936, "RA_OF_ASC_NODE": 189.9995, "ARG_OF_PERICENTER": 37.7054, "MEAN_ANOMALY": 77.8626, "EPHEMERIS_TYPE": 0, "CLASSIFICATION_TYPE": "U", "NORAD_CAT_ID": 30023, "ELEMENT_SET_NO": 999, "REV_AT_EPOCH": 97328, "BSTAR": 0.00034411041, "MEAN_MOTION_DOT": 5.87e-06, "MEAN_MOTION_DDOT": 0}, "tle": {"line1": "1 30023U 99025MY  25356.10097722  .00000587  00000+0  34411-3 0  9997", "line2": "2 30023  99.2936 189.9995 0047045  37.7054  77.8626 14.11876101973289"}}, "geometry": {"type": "Point", "coordinates": [-155.75956096650472, -55.17771632435891]}}, {"type": "Feature", "properties": {"norad_id": 30028, "name": "FENGYUN 1C DEB", "group": "fengyun-1c-debris", "lat": -15.093628305559587, "lon": -9.096291560167444, "alt_km": 816.1898571922538, "timestamp": "2025-12-22T16:55:17.736388+00:00", "meta": {"OBJECT_NAME": "FENGYUN 1C DEB", "OBJECT_ID": "1999-025ND", "EPOCH": "2025-12-21T21:28:54.022944", "MEAN_MOTION": 14.5551943, "ECCENTRICITY": 0.01745868, "INCLINATION": 98.1459, "RA_OF_ASC_NODE": 347.8993, "ARG_OF_PERICENTER": 199.8117, "MEAN_ANOMALY": 222.2019, "EPHEMERIS_TYPE": 0, "CLASSIFICATION_TYPE": "U", "NORAD_CAT_ID": 30028, "ELEMENT_SET_NO": 999, "REV_AT_EPOCH": 99855, "BSTAR": 0.00026600151, "MEAN_MOTION_DOT": 1.368e-05, "MEAN_MOTION_DDOT": 0}, "tle": {"line1": "1 30028U 99025ND  25355.89506971  .00001368  00000+0  26600-3 0  9997", "line2": "2 30028  98.1459 347.8993 0174586 199.8117 222.2019 14.55519430998552"}}, "geometry": {"type": "Point", "coordinates": [-9.096291560167444, -15.093628305559587]}}]}